[Satellite]
VERSION=1.1
NAME=CZ-6A DEB
NICKNAME=CZ-6A DEB
TLE1=1 54267U 22151J   22342.47031070  .00001524  00000+0  50099-3 0  9997
TLE2=2 54267  98.9102 348.8061 0106376 140.6665 220.2308 14.36612325  3773
STATUS=0
